#aV2024 10 13  0  0  0.00000000     288 DD+AD WGS84 FIT  NGA
## 2336      0.00000000   300.00000000 60596 0.0000000000000
+   31     2  3  4  5  6  7  8  9 10 11 12 13 14 15 16 17 18
+         19 20 21 22 23 24 25 26 27 28 29 30 31 32  0  0  0
+          0  0  0  0  0  0  0  0  0  0  0  0  0  0  0  0  0
+          0  0  0  0  0  0  0  0  0  0  0  0  0  0  0  0  0
+          0  0  0  0  0  0  0  0  0  0  0  0  0  0  0  0  0
++         2  2  2  2  2  2  2  2  2  2  2  2  2  2  2  2  2
++         2  2  2  2  2  2  2  2  2  2  2  2  2  2  0  0  0
++         0  0  0  0  0  0  0  0  0  0  0  0  0  0  0  0  0
++         0  0  0  0  0  0  0  0  0  0  0  0  0  0  0  0  0
++         0  0  0  0  0  0  0  0  0  0  0  0  0  0  0  0  0
%c cc cc ccc ccc cccc cccc cccc cccc ccccc ccccc ccccc ccccc
%c cc cc ccc ccc cccc cccc cccc cccc ccccc ccccc ccccc ccccc
%f  0.0000000  0.000000000  0.00000000000  0.000000000000000
%f  0.0000000  0.000000000  0.00000000000  0.000000000000000
%i    0    0    0    0      0      0      0      0         0
%i    0    0    0    0      0      0      0      0         0
/*      NGA, ST. LOUIS,MO.                                  
/*   EPHEMERIS COMPUTED FROM 2 DAYS OF DATA                 
/*   EPOCHA v9 SMOOTHER                                     
/*   G2296 IERS2010 SATIGS SATAPC                           
*  2024 10 13 20 40  0.00000000
P  2 -20253.961005 -13583.359118 -10453.962814   -337.753240                    
V  2  13892.239049   1893.120243 -27780.117751      0.082374                    
P  3 -12321.046207 -18515.473013  14434.220989    569.219971                    
V  3  -1171.339205 -18551.040931 -24408.048183      0.119160                    
P  4 -14084.411588  -7795.345713  21164.816882    461.129792                    
V  4  21191.591225 -16416.654446   7916.340901      0.068106                    
P  5   5252.635874  25999.441864   -105.286203   -189.690926                    
V  5  -2445.604775    400.846853  32074.480109     -0.012277                    
P  6 -14820.241357   8418.410003  20470.122306    -36.329708                    
V  6 -23518.729290 -10453.362723 -12666.976944     -0.275355                    
P  7 -25482.468475  -6271.275520  -4910.962785    -27.982945                    
V  7  -5344.353032  -5066.889784  30420.474137      0.034525                    
P  8  -3908.154004 -16155.960577 -20740.515882    383.337946                    
V  8  20609.348968 -16228.614069   9241.008519      0.116376                    
P  9 -20647.098272   2203.136858  16502.618870    397.375565                    
V  9  14992.684450 -14981.145779  20577.354335      0.165132                    
P 10  11090.021497 -13646.088476 -19576.657528   -157.471857                    
V 10   4821.294490  24941.102300 -14820.602660     -0.133376                    
P 11    488.252766  16188.888986  21095.076982   -743.649284                    
V 11 -24611.580399 -10317.280018   8437.950578     -0.030129                    
P 12   9655.519967  21892.672039  11292.882086   -544.912079                    
V 12  -1245.856334  14902.119385 -27103.589538     -0.026679                    
P 13  -6014.131801  18174.933991 -18538.539245    681.300863                    
V 13 -20667.152945  10465.892672  17410.443354      0.017986                    
P 14 -13725.500988   9602.815681 -20518.295586    516.861469                    
V 14  -4404.812256 -25916.620077  -9387.924534      0.084059                    
P 15   6336.028886  15816.222559 -20867.580235    215.377981                    
V 15 -17920.540444  18097.070397   8648.293034      0.044580                    
P 16    854.286805 -26015.587036   3534.407397   -155.716930                    
V 16   3497.674772   4759.176575  31628.323751      0.099940                    
P 17 -22583.054213  13900.393756  -2303.312770    596.484680                    
V 17   1360.187915  -4013.303404 -31587.314408     -0.128824                    
P 18  25167.880674   5243.604836  -7106.972678   -657.833283                    
V 18   7502.470786   5367.912943  30199.652702     -0.013745                    
P 19 -19021.662484  17114.881042   6083.711978    550.115183                    
V 19  -8328.055371   1827.209047 -30860.815255      0.046910                    
P 20   -441.848615  24027.428501  11545.619898    369.702763                    
V 20  -6939.675631 -12962.258870  26731.737545     -0.003684                    
P 21 -15864.361884 -15489.951296 -14969.331928     99.830014                    
V 21  18944.569796   3980.506431 -22519.295357     -0.008006                    
P 22 -10340.582434  18056.008892 -16275.926832    -70.754536                    
V 22  -3050.297098 -21169.695403 -20730.756885     -0.033611                    
P 23  15042.115074   1116.328539 -21849.877443    340.971965                    
V 23   4646.739121  27344.674593   4370.456256      0.081854                    
P 24  18194.905682  15097.363573 -12949.860351   -484.854331                    
V 24 -15725.591201  -1847.370613 -24727.261917      0.011698                    
P 25  15390.467188  10260.515385  18810.615568    499.527724                    
V 25   2661.918295  24460.632705 -14983.945575     -0.001164                    
P 26   6440.142379 -20753.156169  14847.981046     56.499921                    
V 26   7385.941889  18168.461334  22327.024060     -0.093645                    
P 27   7294.602765 -20113.152845 -15752.136326    -34.534176                    
V 27  16626.661194 -10688.360089  22174.676677     -0.002196                    
P 28  16683.189849  -8103.009265  19000.642668   -444.789567                    
V 28  22276.397204   9427.344641 -15523.973610     -0.129217                    
P 29  19839.745079   1175.011468  17641.010211   -571.462865                    
V 29 -17725.107946  13791.937680  18849.007552      0.026751                    
P 30 -22329.017278   2490.002443 -14215.691013   -303.003354                    
V 30 -16073.840337  -9052.221993  23147.167431      0.074516                    
P 31   5318.620864 -14283.804776  21506.672697   -223.431152                    
V 31  25827.749474  10571.218641    995.390155      0.005499                    
P 32  20982.384872 -16046.455946  -1113.141120   -587.077539                    
V 32    551.499816   3346.424510 -31888.489061      0.044060                    
EOF
